[{"OBJECT_NAME":"STARLINK-34706","OBJECT_ID":"2025-152D","EPOCH":"2026-03-09T13:21:56.917728","MEAN_MOTION":15.0566891,"ECCENTRICITY":0.00016781,"INCLINATION":97.6018,"RA_OF_ASC_NODE":285.3179,"ARG_OF_PERICENTER":78.6066,"MEAN_ANOMALY":281.5349,"EPHEMERIS_TYPE":0,"CLASSIFICATION_TYPE":"U","NORAD_CAT_ID":64845,"ELEMENT_SET_NO":999,"REV_AT_EPOCH":3539,"BSTAR":-2.7094144e-5,"MEAN_MOTION_DOT":-4.52e-6,"MEAN_MOTION_DDOT":0},{"OBJECT_NAME":"CZ-6A DEB","OBJECT_ID":"2024-140FD","EPOCH":"2026-03-09T14:27:44.906112","MEAN_MOTION":14.99694865,"ECCENTRICITY":0.0039811,"INCLINATION":89.0027,"RA_OF_ASC_NODE":280.8171,"ARG_OF_PERICENTER":188.2594,"MEAN_ANOMALY":171.7991,"EPHEMERIS_TYPE":0,"CLASSIFICATION_TYPE":"U","NORAD_CAT_ID":60778,"ELEMENT_SET_NO":999,"REV_AT_EPOCH":8450,"BSTAR":0.0048584,"MEAN_MOTION_DOT":0.00061368,"MEAN_MOTION_DDOT":0}]
